start=new Date('2022-05-03T00:00:00.000Z').valueOf();
sats=[{"RA_OF_ASC_NODE":"22.7880","NORAD_CAT_ID":"48459","OBJECT_TYPE":"PAYLOAD","RCS_SIZE":"LARGE","ELEMENT_SET_NO":"999","DECAY_DATE":null,"REV_AT_EPOCH":"5450","MEAN_MOTION":"15.06383758","INCLINATION":"53.0544","SITE":"AFETR","MEAN_MOTION_DOT":"0.00002888","TLE_LINE2":"2 48459  53.0544  22.7880 0001670  62.5864 297.5294 15.06383758 54503","GP_ID":"202556891","SEMIMAJOR_AXIS":"6925.398","PERIOD":"95.593","APOAPSIS":"548.420","LAUNCH_DATE":"2021-05-09","MEAN_ANOMALY":"297.5294","EPHEMERIS_TYPE":"0","EPOCH":"2022-05-02T17:09:05.397120","MEAN_ELEMENT_THEORY":"SGP4","OBJECT_NAME":"STARLINK-2579","TLE_LINE1":"1 48459U 21040AH  22122.71464580  .00002888  00000-0  21279-3 0  9991","TIME_SYSTEM":"UTC","COUNTRY_CODE":"US","REF_FRAME":"TEME","CENTER_NAME":"EARTH","PERIAPSIS":"546.107","ARG_OF_PERICENTER":"62.5864","FILE":"3426306","BSTAR":"0.00021279000000","CLASSIFICATION_TYPE":"U","ECCENTRICITY":"0.00016700","OBJECT_ID":"2021-040AH","MEAN_MOTION_DDOT":"0.0000000000000"},{"OBJECT_TYPE":"PAYLOAD","NORAD_CAT_ID":"48460","RCS_SIZE":"LARGE","RA_OF_ASC_NODE":"22.2522","DECAY_DATE":null,"REV_AT_EPOCH":"5502","ELEMENT_SET_NO":"999","MEAN_MOTION":"15.06404835","INCLINATION":"53.0548","SITE":"AFETR","MEAN_MOTION_DOT":"0.00007107","APOAPSIS":"548.280","SEMIMAJOR_AXIS":"6925.334","TLE_LINE2":"2 48460  53.0548  22.2522 0001562  63.9058 296.2091 15.06404835 55026","GP_ID":"202555646","PERIOD":"95.592","EPHEMERIS_TYPE":"0","EPOCH":"2022-05-02T20:00:16.712928","MEAN_ELEMENT_THEORY":"SGP4","LAUNCH_DATE":"2021-05-09","MEAN_ANOMALY":"296.2091","OBJECT_NAME":"STARLINK-2582","TIME_SYSTEM":"UTC","TLE_LINE1":"1 48460U 21040AJ  22122.83352677  .00007107  00000-0  49544-3 0  9993","PERIAPSIS":"546.117","COUNTRY_CODE":"US","CENTER_NAME":"EARTH","REF_FRAME":"TEME","FILE":"3426306","ARG_OF_PERICENTER":"63.9058","OBJECT_ID":"2021-040AJ","ECCENTRICITY":"0.00015620","MEAN_MOTION_DDOT":"0.0000000000000","BSTAR":"0.00049544000000","CLASSIFICATION_TYPE":"U"},{"ARG_OF_PERICENTER":"58.6244","FILE":"3426306","BSTAR":"0.00011890000000","CLASSIFICATION_TYPE":"U","OBJECT_ID":"2021-040AK","ECCENTRICITY":"0.00017020","MEAN_MOTION_DDOT":"0.0000000000000","OBJECT_NAME":"STARLINK-2693","TIME_SYSTEM":"UTC","TLE_LINE1":"1 48461U 21040AK  22122.71557578  .00001489  00000-0  11890-3 0  9998","CENTER_NAME":"EARTH","COUNTRY_CODE":"US","REF_FRAME":"TEME","PERIAPSIS":"546.062","GP_ID":"202555896","TLE_LINE2":"2 48461  53.0568  22.7725 0001702  58.6244 301.4911 15.06391194 54508","SEMIMAJOR_AXIS":"6925.376","PERIOD":"95.593","APOAPSIS":"548.419","LAUNCH_DATE":"2021-05-09","MEAN_ANOMALY":"301.4911","EPHEMERIS_TYPE":"0","EPOCH":"2022-05-02T17:10:25.747392","MEAN_ELEMENT_THEORY":"SGP4","RA_OF_ASC_NODE":"22.7725","OBJECT_TYPE":"PAYLOAD","NORAD_CAT_ID":"48461","RCS_SIZE":"LARGE","REV_AT_EPOCH":"5450","DECAY_DATE":null,"ELEMENT_SET_NO":"999","INCLINATION":"53.0568","MEAN_MOTION":"15.06391194","MEAN_MOTION_DOT":"0.00001489","SITE":"AFETR"},{"TLE_LINE2":"2 48462  53.0554  27.3580 0001640  57.8585 302.2563 15.06379707 54445","SEMIMAJOR_AXIS":"6925.411","GP_ID":"202556146","PERIOD":"95.593","APOAPSIS":"548.412","LAUNCH_DATE":"2021-05-09","MEAN_ANOMALY":"302.2563","EPHEMERIS_TYPE":"0","EPOCH":"2022-05-02T19:18:28.240992","MEAN_ELEMENT_THEORY":"SGP4","RA_OF_ASC_NODE":"27.3580","OBJECT_TYPE":"PAYLOAD","NORAD_CAT_ID":"48462","RCS_SIZE":"LARGE","DECAY_DATE":null,"REV_AT_EPOCH":"5444","INCLINATION":"53.0554","ELEMENT_SET_NO":"999","MEAN_MOTION":"15.06379707","MEAN_MOTION_DOT":"0.00005087","SITE":"AFETR","ARG_OF_PERICENTER":"57.8585","FILE":"3426306","BSTAR":"0.00036037000000","CLASSIFICATION_TYPE":"U","OBJECT_ID":"2021-040AL","ECCENTRICITY":"0.00016400","MEAN_MOTION_DDOT":"0.0000000000000","OBJECT_NAME":"STARLINK-2683","TLE_LINE1":"1 48462U 21040AL  22122.80449353  .00005087  00000-0  36037-3 0  9998","TIME_SYSTEM":"UTC","REF_FRAME":"TEME","COUNTRY_CODE":"US","CENTER_NAME":"EARTH","PERIAPSIS":"546.140"},{"TLE_LINE2":"2 48463  53.0558  27.5296 0001539  58.3736 301.7403 15.06377232 54445","GP_ID":"202556392","SEMIMAJOR_AXIS":"6925.418","PERIOD":"95.594","APOAPSIS":"548.349","LAUNCH_DATE":"2021-05-09","MEAN_ANOMALY":"301.7403","EPOCH":"2022-05-02T18:30:41.719680","EPHEMERIS_TYPE":"0","MEAN_ELEMENT_THEORY":"SGP4","RA_OF_ASC_NODE":"27.5296","OBJECT_TYPE":"PAYLOAD","NORAD_CAT_ID":"48463","RCS_SIZE":"LARGE","DECAY_DATE":null,"ELEMENT_SET_NO":"999","REV_AT_EPOCH":"5444","MEAN_MOTION":"15.06377232","INCLINATION":"53.0558","SITE":"AFETR","MEAN_MOTION_DOT":"0.00001030","ARG_OF_PERICENTER":"58.3736","FILE":"3426306","BSTAR":"0.00008809400000","CLASSIFICATION_TYPE":"U","ECCENTRICITY":"0.00015390","OBJECT_ID":"2021-040AM","MEAN_MOTION_DDOT":"0.0000000000000","OBJECT_NAME":"STARLINK-2689","TIME_SYSTEM":"UTC","TLE_LINE1":"1 48463U 21040AM  22122.77131620  .00001030  00000-0  88094-4 0  9995","COUNTRY_CODE":"US","CENTER_NAME":"EARTH","REF_FRAME":"TEME","PERIAPSIS":"546.218"},{"RA_OF_ASC_NODE":"30.3025","OBJECT_TYPE":"PAYLOAD","NORAD_CAT_ID":"48464","RCS_SIZE":"MEDIUM","MEAN_MOTION":"15.06376549","DECAY_DATE":null,"REV_AT_EPOCH":"5434","ELEMENT_SET_NO":"999","INCLINATION":"53.0559","MEAN_MOTION_DOT":"-0.00000074","SITE":"AFETR","GP_ID":"202520975","TLE_LINE2":"2 48464  53.0559  30.3025 0001536  64.0158 296.0989 15.06376549 54342","SEMIMAJOR_AXIS":"6925.420","PERIOD":"95.594","APOAPSIS":"548.349","LAUNCH_DATE":"2021-05-09","MEAN_ANOMALY":"296.0989","EPHEMERIS_TYPE":"0","EPOCH":"2022-05-02T03:40:20.756928","MEAN_ELEMENT_THEORY":"SGP4","OBJECT_NAME":"STARLINK-2686","TIME_SYSTEM":"UTC","TLE_LINE1":"1 48464U 21040AN  22122.15301802 -.00000074  00000-0  13956-4 0  9992","COUNTRY_CODE":"US","REF_FRAME":"TEME","CENTER_NAME":"EARTH","PERIAPSIS":"546.222","ARG_OF_PERICENTER":"64.0158","FILE":"3425830","BSTAR":"0.00001395600000","CLASSIFICATION_TYPE":"U","OBJECT_ID":"2021-040AN","ECCENTRICITY":"0.00015360","MEAN_MOTION_DDOT":"0.0000000000000"},{"APOAPSIS":"548.224","PERIOD":"95.593","TLE_LINE2":"2 48465  53.0555  27.5736 0001396  76.9983 283.1162 15.06385638 54448","GP_ID":"202555396","SEMIMAJOR_AXIS":"6925.393","MEAN_ELEMENT_THEORY":"SGP4","EPHEMERIS_TYPE":"0","EPOCH":"2022-05-02T18:16:07.948704","MEAN_ANOMALY":"283.1162","LAUNCH_DATE":"2021-05-09","RCS_SIZE":"LARGE","NORAD_CAT_ID":"48465","OBJECT_TYPE":"PAYLOAD","RA_OF_ASC_NODE":"27.5736","MEAN_MOTION_DOT":"-0.00000611","SITE":"AFETR","DECAY_DATE":null,"ELEMENT_SET_NO":"999","REV_AT_EPOCH":"5444","MEAN_MOTION":"15.06385638","INCLINATION":"53.0555","FILE":"3426306","ARG_OF_PERICENTER":"76.9983","MEAN_MOTION_DDOT":"0.0000000000000","ECCENTRICITY":"0.00013960","OBJECT_ID":"2021-040AP","CLASSIFICATION_TYPE":"U","BSTAR":"-0.00002216300000","TLE_LINE1":"1 48465U 21040AP  22122.76120311 -.00000611  00000-0 -22163-4 0  9992","TIME_SYSTEM":"UTC","OBJECT_NAME":"STARLINK-2681","PERIAPSIS":"546.291","COUNTRY_CODE":"US","REF_FRAME":"TEME","CENTER_NAME":"EARTH"},{"TLE_LINE1":"1 48466U 21040AQ  22122.14933438 -.00002553  00000-0 -15270-3 0  9994","TIME_SYSTEM":"UTC","OBJECT_NAME":"STARLINK-2687","PERIAPSIS":"545.970","COUNTRY_CODE":"US","CENTER_NAME":"EARTH","REF_FRAME":"TEME","FILE":"3425830","ARG_OF_PERICENTER":"61.9975","MEAN_MOTION_DDOT":"0.0000000000000","ECCENTRICITY":"0.00019330","OBJECT_ID":"2021-040AQ","CLASSIFICATION_TYPE":"U","BSTAR":"-0.00015270000000","RCS_SIZE":"LARGE","NORAD_CAT_ID":"48466","OBJECT_TYPE":"PAYLOAD","RA_OF_ASC_NODE":"30.3237","SITE":"AFETR","MEAN_MOTION_DOT":"-0.00002553","MEAN_MOTION":"15.06369062","DECAY_DATE":null,"REV_AT_EPOCH":"5435","ELEMENT_SET_NO":"999","INCLINATION":"53.0556","APOAPSIS":"548.647","PERIOD":"95.594","SEMIMAJOR_AXIS":"6925.443","TLE_LINE2":"2 48466  53.0556  30.3237 0001933  61.9975 298.1209 15.06369062 54351","GP_ID":"202521975","MEAN_ELEMENT_THEORY":"SGP4","EPHEMERIS_TYPE":"0","EPOCH":"2022-05-02T03:35:02.490432","MEAN_ANOMALY":"298.1209","LAUNCH_DATE":"2021-05-09"},{"RCS_SIZE":"LARGE","OBJECT_TYPE":"PAYLOAD","NORAD_CAT_ID":"48467","RA_OF_ASC_NODE":"27.5229","MEAN_MOTION_DOT":"0.00003073","SITE":"AFETR","DECAY_DATE":null,"MEAN_MOTION":"15.06389508","REV_AT_EPOCH":"5444","ELEMENT_SET_NO":"999","INCLINATION":"53.0561","APOAPSIS":"548.343","PERIOD":"95.593","GP_ID":"202556892","TLE_LINE2":"2 48467  53.0561  27.5229 0001584  66.3348 293.7807 15.06389508 54444","SEMIMAJOR_AXIS":"6925.381","MEAN_ELEMENT_THEORY":"SGP4","EPOCH":"2022-05-02T18:32:02.554656","EPHEMERIS_TYPE":"0","MEAN_ANOMALY":"293.7807","LAUNCH_DATE":"2021-05-09","TLE_LINE1":"1 48467U 21040AR  22122.77225179  .00003073  00000-0  22516-3 0  9997","TIME_SYSTEM":"UTC","OBJECT_NAME":"STARLINK-2659","PERIAPSIS":"546.149","CENTER_NAME":"EARTH","COUNTRY_CODE":"US","REF_FRAME":"TEME","FILE":"3426306","ARG_OF_PERICENTER":"66.3348","MEAN_MOTION_DDOT":"0.0000000000000","ECCENTRICITY":"0.00015840","OBJECT_ID":"2021-040AR","CLASSIFICATION_TYPE":"U","BSTAR":"0.00022516000000"},{"MEAN_ELEMENT_THEORY":"SGP4","EPHEMERIS_TYPE":"0","EPOCH":"2022-05-02T19:41:02.472000","MEAN_ANOMALY":"291.7275","LAUNCH_DATE":"2021-05-09","APOAPSIS":"548.184","PERIOD":"95.592","TLE_LINE2":"2 48468  53.0569  27.3032 0001385  68.3862 291.7275 15.06396186 55724","SEMIMAJOR_AXIS":"6925.360","GP_ID":"202532154","MEAN_MOTION_DOT":"0.00003422","SITE":"AFETR","DECAY_DATE":null,"REV_AT_EPOCH":"5572","ELEMENT_SET_NO":"999","INCLINATION":"53.0569","MEAN_MOTION":"15.06396186","RCS_SIZE":"LARGE","NORAD_CAT_ID":"48468","OBJECT_TYPE":"PAYLOAD","RA_OF_ASC_NODE":"27.3032","MEAN_MOTION_DDOT":"0.0000000000000","OBJECT_ID":"2021-040AS","ECCENTRICITY":"0.00013850","CLASSIFICATION_TYPE":"U","BSTAR":"0.00024852000000","FILE":"3426122","ARG_OF_PERICENTER":"68.3862","PERIAPSIS":"546.266","COUNTRY_CODE":"US","REF_FRAME":"TEME","CENTER_NAME":"EARTH","TIME_SYSTEM":"UTC","TLE_LINE1":"1 48468U 21040AS  22122.82016750  .00003422  00000-0  24852-3 0  9990","OBJECT_NAME":"STARLINK-2685"}];
